IRIDIUM 155             
1 43573U 18061E   24356.31200178  .00000568  00000+0  19565-3 0  9997
2 43573  86.3961 283.5241 0001804  81.4505 278.6896 14.34225153335555
IRIDIUM 154             
1 43574U 18061F   24355.87436990  .00001098  00000+0  38516-3 0  9997
2 43574  86.3962 283.8135 0002266  82.6226 277.5227 14.34214951335536
IRIDIUM 163             
1 43575U 18061G   24356.27396006  .00000072  00000+0  18630-4 0  9993
2 43575  86.3963 283.5793 0002053  81.8681 278.2747 14.34220321335561
IRIDIUM 156             
1 43576U 18061H   24356.31836847  .00000591  00000+0  20409-3 0  9993
2 43576  86.3962 283.5674 0001825  85.4055 274.7349 14.34218179335556
IRIDIUM 164             
1 43577U 18061J   24355.81095091  .00000746  00000+0  25928-3 0  9999
2 43577  86.3966 283.8113 0002257  90.6887 269.4567 14.34215480335536
IRIDIUM 159             
1 43578U 18061K   24356.33739018  .00000095  00000+0  27024-4 0  9999
2 43578  86.3962 283.5393 0002250  85.0579 275.0873 14.34217131335571
IRIDIUM 180             
1 43922U 19002A   24356.12758037  .00000373  00000+0  12625-3 0  9996
2 43922  86.3982 220.5040 0002025  83.0621 277.0805 14.34216260311193
IRIDIUM 176             
1 43923U 19002B   24355.68920435  .00001874  00000+0  29333-3 0  9991
2 43923  86.6111 220.6943 0003031  73.7123 286.4427 14.72249328319280
IRIDIUM 168             
1 43924U 19002C   24355.70262931  .00000455  00000+0  15542-3 0  9996
2 43924  86.3984 220.7437 0002014  86.2809 273.8617 14.34219325311077
IRIDIUM 173             
1 43925U 19002D   24355.68994134 -.00000023  00000+0 -15321-4 0  9990
2 43925  86.3986 220.6602 0001847  83.1541 276.9865 14.34217272311051
IRIDIUM 169             
1 43926U 19002E   24356.16079044  .00000700  00000+0  22247-3 0  9993
2 43926  86.4227 252.0752 0001918  33.4055 326.7264 14.38613639312153
IRIDIUM 172             
1 43927U 19002F   24356.10221014 -.00000107  00000+0 -45169-4 0  9996
2 43927  86.3984 220.4940 0001989  84.9008 275.2415 14.34216895311129
IRIDIUM 175             
1 43928U 19002G   24356.49950195  .00000660  00000+0  10070-3 0  9992
2 43928  86.1520 182.9720 0000586  96.0517 264.0766 14.72239644319394
IRIDIUM 171             
1 43929U 19002H   24356.15295086 -.00000071  00000+0 -32445-4 0  9996
2 43929  86.3995 220.7189 0001768  98.7910 261.3486 14.34216940311126
IRIDIUM 170             
1 43930U 19002J   24355.69539956  .00001529  00000+0  23858-3 0  9997
2 43930  86.6111 220.6970 0002344  84.5389 275.6095 14.72246667319293
IRIDIUM 167             
1 43931U 19002K   24355.86753315  .00000394  00000+0  13379-3 0  9990
2 43931  86.3984 220.6100 0001599  90.0939 270.0440 14.34215055311085
IRIDIUM 181             
1 56726U 23068S   24356.26172800  .00000797  00000+0  22956-3 0  9990
2 56726  86.6866 282.9121 0002183  95.8777 264.2673 14.43564204 84128
IRIDIUM 177             
1 56727U 23068T   24355.73806994  .00002130  00000+0  27688-3 0  9990
2 56727  86.1978 226.7686 0002031  78.9628 281.1822 14.80229738 85978
IRIDIUM 174             
1 56728U 23068U   24356.07064512  .00002403  00000+0  31276-3 0  9992
2 56728  86.1983 226.7295 0002225  92.8874 267.2602 14.80233046 86029
IRIDIUM 178             
1 56729U 23068V   24355.72721164  .00002241  00000+0  29162-3 0  9998
2 56729  86.5773 253.1812 0002528  95.8827 264.2682 14.80212461 85973
IRIDIUM 179             
1 56730U 23068W   24356.05979028  .00000313  00000+0  37672-4 0  9995
2 56730  86.6783 259.5268 0002465  84.3206 275.8297 14.80233196 86021
